[
    {
        "Altitude(m)": 702693.1557926087,
        "Argument of Periapsis(deg)": 0.0034170363559881197,
        "Eccentricity": 0.0,
        "Inclination(deg)": 45.0,
        "Latitude(deg)": 13.899199945271246,
        "Longitude(deg)": 69.03785460493513,
        "Mean Anomaly(deg)": 19.823564994244254,
        "RAAN(deg)": 154.99677441756256,
        "Satellite Name": "Constellation 1 683",
        "Satellite Number": 683,
        "Semi-Major Axis(m)": 7083131.272910544,
        "Time(s)": 57
    },
    {
        "Altitude(m)": 702694.0813984873,
        "Argument of Periapsis(deg)": 0.003476984362233526,
        "Eccentricity": 0.0,
        "Inclination(deg)": 45.0,
        "Latitude(deg)": 13.941073113344004,
        "Longitude(deg)": 69.07923402879268,
        "Mean Anomaly(deg)": 19.88426613449414,
        "RAAN(deg)": 154.99671782839695,
        "Satellite Name": "Constellation 1 683",
        "Satellite Number": 683,
        "Semi-Major Axis(m)": 7083131.272910544,
        "Time(s)": 58
    },
    {
        "Altitude(m)": 702695.0249249524,
        "Argument of Periapsis(deg)": 0.003536932368478932,
        "Eccentricity": 0.0,
        "Inclination(deg)": 45.0,
        "Latitude(deg)": 13.982937670983777,
        "Longitude(deg)": 69.1206297097261,
        "Mean Anomaly(deg)": 19.94496727474405,
        "RAAN(deg)": 154.9966612392314,
        "Satellite Name": "Constellation 1 683",
        "Satellite Number": 683,
        "Semi-Major Axis(m)": 7083131.272910544,
        "Time(s)": 59
    },
    {
        "Altitude(m)": 702695.9863498444,
        "Argument of Periapsis(deg)": 0.003596880374724337,
        "Eccentricity": 0.0,
        "Inclination(deg)": 45.0,
        "Latitude(deg)": 14.02479358813607,
        "Longitude(deg)": 69.16204203765679,
        "Mean Anomaly(deg)": 20.005668414993938,
        "RAAN(deg)": 154.99660465006582,
        "Satellite Name": "Constellation 1 683",
        "Satellite Number": 683,
        "Semi-Major Axis(m)": 7083131.272910544,
        "Time(s)": 60
    },
    {
        "Altitude(m)": 702696.9656509308,
        "Argument of Periapsis(deg)": 0.0036568283809697427,
        "Eccentricity": 0.0,
        "Inclination(deg)": 45.0,
        "Latitude(deg)": 14.06664083471381,
        "Longitude(deg)": 69.2034708982445,
        "Mean Anomaly(deg)": 20.06636955524385,
        "RAAN(deg)": 154.99654806090027,
        "Satellite Name": "Constellation 1 683",
        "Satellite Number": 683,
        "Semi-Major Axis(m)": 7083131.272910544,
        "Time(s)": 61
    },
    {
        "Altitude(m)": 702697.9628059011,
        "Argument of Periapsis(deg)": 0.003716776387215149,
        "Eccentricity": 0.0,
        "Inclination(deg)": 45.0,
        "Latitude(deg)": 14.108479380597865,
        "Longitude(deg)": 69.24491634527558,
        "Mean Anomaly(deg)": 20.127070695493735,
        "RAAN(deg)": 154.99649147173469,
        "Satellite Name": "Constellation 1 683",
        "Satellite Number": 683,
        "Semi-Major Axis(m)": 7083131.272910544,
        "Time(s)": 62
    },
    {
        "Altitude(m)": 702698.977792374,
        "Argument of Periapsis(deg)": 0.003776724393460554,
        "Eccentricity": 0.0,
        "Inclination(deg)": 45.0,
        "Latitude(deg)": 14.150309195636773,
        "Longitude(deg)": 69.28637843256618,
        "Mean Anomaly(deg)": 20.187771835743646,
        "RAAN(deg)": 154.9964348825691,
        "Satellite Name": "Constellation 1 683",
        "Satellite Number": 683,
        "Semi-Major Axis(m)": 7083131.272910544,
        "Time(s)": 63
    },
    {
        "Altitude(m)": 702700.0105878799,
        "Argument of Periapsis(deg)": 0.003836672399705959,
        "Eccentricity": 0.0,
        "Inclination(deg)": 45.0,
        "Latitude(deg)": 14.192130249646647,
        "Longitude(deg)": 69.32785721396212,
        "Mean Anomaly(deg)": 20.24847297599356,
        "RAAN(deg)": 154.99637829340355,
        "Satellite Name": "Constellation 1 683",
        "Satellite Number": 683,
        "Semi-Major Axis(m)": 7083131.272910544,
        "Time(s)": 64
    },
    {
        "Altitude(m)": 702701.0611699026,
        "Argument of Periapsis(deg)": 0.003896620405951365,
        "Eccentricity": 0.0,
        "Inclination(deg)": 45.0,
        "Latitude(deg)": 14.23394251241103,
        "Longitude(deg)": 69.36935274333892,
        "Mean Anomaly(deg)": 20.309174116243444,
        "RAAN(deg)": 154.996321704238,
        "Satellite Name": "Constellation 1 683",
        "Satellite Number": 683,
        "Semi-Major Axis(m)": 7083131.272910544,
        "Time(s)": 65
    },
    {
        "Altitude(m)": 702702.1295158298,
        "Argument of Periapsis(deg)": 0.003956568412196771,
        "Eccentricity": 0.0,
        "Inclination(deg)": 45.0,
        "Latitude(deg)": 14.275745953680842,
        "Longitude(deg)": 69.41086507460197,
        "Mean Anomaly(deg)": 20.36987525649336,
        "RAAN(deg)": 154.99626511507242,
        "Satellite Name": "Constellation 1 683",
        "Satellite Number": 683,
        "Semi-Major Axis(m)": 7083131.272910544,
        "Time(s)": 66
    },
    {
        "Altitude(m)": 702703.2156029803,
        "Argument of Periapsis(deg)": 0.004016516418442176,
        "Eccentricity": 0.0,
        "Inclination(deg)": 45.0,
        "Latitude(deg)": 14.31754054317406,
        "Longitude(deg)": 69.45239409358925,
        "Mean Anomaly(deg)": 20.43057639674322,
        "RAAN(deg)": 154.99620852590684,
        "Satellite Name": "Constellation 1 683",
        "Satellite Number": 683,
        "Semi-Major Axis(m)": 7083131.272910544,
        "Time(s)": 67
    },
    {
        "Altitude(m)": 702704.3194086114,
        "Argument of Periapsis(deg)": 0.004076464424687581,
        "Eccentricity": 0.0,
        "Inclination(deg)": 45.0,
        "Latitude(deg)": 14.359326250576265,
        "Longitude(deg)": 69.4939401904601,
        "Mean Anomaly(deg)": 20.49127753699316,
        "RAAN(deg)": 154.99615193674128,
        "Satellite Name": "Constellation 1 683",
        "Satellite Number": 683,
        "Semi-Major Axis(m)": 7083131.272910544,
        "Time(s)": 68
    },
    {
        "Altitude(m)": 702705.4409098884,
        "Argument of Periapsis(deg)": 0.004136412430932987,
        "Eccentricity": 0.0,
        "Inclination(deg)": 45.0,
        "Latitude(deg)": 14.40110304553959,
        "Longitude(deg)": 69.53550325111232,
        "Mean Anomaly(deg)": 20.551978677243042,
        "RAAN(deg)": 154.9960953475757,
        "Satellite Name": "Constellation 1 683",
        "Satellite Number": 683,
        "Semi-Major Axis(m)": 7083131.272910544,
        "Time(s)": 69
    },
    {
        "Altitude(m)": 702706.580083924,
        "Argument of Periapsis(deg)": 0.004196360437178394,
        "Eccentricity": 0.0,
        "Inclination(deg)": 45.0,
        "Latitude(deg)": 14.442870897683193,
        "Longitude(deg)": 69.57708332957077,
        "Mean Anomaly(deg)": 20.612679817492932,
        "RAAN(deg)": 154.99603875841015,
        "Satellite Name": "Constellation 1 683",
        "Satellite Number": 683,
        "Semi-Major Axis(m)": 7083131.272910544,
        "Time(s)": 70
    },
    {
        "Altitude(m)": 702707.7369077405,
        "Argument of Periapsis(deg)": 0.004256308443423799,
        "Eccentricity": 0.0,
        "Inclination(deg)": 45.0,
        "Latitude(deg)": 14.484629776593128,
        "Longitude(deg)": 69.61868047989037,
        "Mean Anomaly(deg)": 20.673380957742815,
        "RAAN(deg)": 154.99598216924454,
        "Satellite Name": "Constellation 1 683",
        "Satellite Number": 683,
        "Semi-Major Axis(m)": 7083131.272910544,
        "Time(s)": 71
    },
    {
        "Altitude(m)": 702708.9113582976,
        "Argument of Periapsis(deg)": 0.004316256449669204,
        "Eccentricity": 0.0,
        "Inclination(deg)": 45.0,
        "Latitude(deg)": 14.526379651822044,
        "Longitude(deg)": 69.66029475615606,
        "Mean Anomaly(deg)": 20.73408209799273,
        "RAAN(deg)": 154.995925580079,
        "Satellite Name": "Constellation 1 683",
        "Satellite Number": 683,
        "Semi-Major Axis(m)": 7083131.272910544,
        "Time(s)": 72
    },
    {
        "Altitude(m)": 702710.103412479,
        "Argument of Periapsis(deg)": 0.00437620445591461,
        "Eccentricity": 0.0,
        "Inclination(deg)": 45.0,
        "Latitude(deg)": 14.56812049288924,
        "Longitude(deg)": 69.70192621248266,
        "Mean Anomaly(deg)": 20.79478323824264,
        "RAAN(deg)": 154.99586899091344,
        "Satellite Name": "Constellation 1 683",
        "Satellite Number": 683,
        "Semi-Major Axis(m)": 7083131.272910544,
        "Time(s)": 73
    },
    {
        "Altitude(m)": 702711.3130470993,
        "Argument of Periapsis(deg)": 0.004436152462160016,
        "Eccentricity": 0.0,
        "Inclination(deg)": 45.0,
        "Latitude(deg)": 14.60985226928028,
        "Longitude(deg)": 69.74357473491817,
        "Mean Anomaly(deg)": 20.855484378492527,
        "RAAN(deg)": 154.99581240174786,
        "Satellite Name": "Constellation 1 683",
        "Satellite Number": 683,
        "Semi-Major Axis(m)": 7083131.272910544,
        "Time(s)": 74
    },
    {
        "Altitude(m)": 702712.5402388887,
        "Argument of Periapsis(deg)": 0.0044961004684054215,
        "Eccentricity": 0.0,
        "Inclination(deg)": 45.0,
        "Latitude(deg)": 14.651574950447554,
        "Longitude(deg)": 69.78524071383195,
        "Mean Anomaly(deg)": 20.916185518742438,
        "RAAN(deg)": 154.9957558125823,
        "Satellite Name": "Constellation 1 683",
        "Satellite Number": 683,
        "Semi-Major Axis(m)": 7083131.272910544,
        "Time(s)": 75
    }
]